0 COSMOS 1275 DEB
1 12737U 81053CE  13281.87448501  .00000942  00000-0  10532-2 0  3924
2 12737 082.9991 052.3330 0154706 320.9354 162.7335 13.65285350593131
0 COSMOS 1275 DEB
1 12737U 81053CE  13286.79103472  .00001116  00000-0  12503-2 0  3941
2 12737 082.9998 048.7769 0155259 307.1995 208.0249 13.65295611593808
0 COSMOS 1275 DEB
1 12737U 81053CE  13288.83615242  .00001231  00000-0  13799-2 0  3958
2 12737 082.9999 047.2978 0155627 301.4917 180.0150 13.65301088594082
0 COSMOS 1275 DEB
1 12737U 81053CE  13291.10716589  .00001275  00000-0  14297-2 0  3961
2 12737 082.9999 045.6556 0155983 295.1815 182.3250 13.65306717594391
0 COSMOS 1275 DEB
1 12737U 81053CE  13293.28523306  .00001371  00000-0  15371-2 0  3977
2 12737 082.9996 044.0803 0156282 289.1533 087.8075 13.65311568594696
0 COSMOS 1275 DEB
1 12737U 81053CE  13295.34453340  .00001322  00000-0  14820-2 0  3981
2 12737 082.9997 042.5910 0156514 283.4673 129.5574 13.65316566594971
